QIANFAN-25              
1 61558U 24185G   25210.84485592  .00000255  00000+0  14807-3 0  9994
2 61558  88.9790  93.5897 0008460  28.6602 331.5044 14.05750406 50413
QIANFAN-26              
1 61559U 24185H   25210.86542386  .00000217  00000+0  20405-3 0  9991
2 61559  88.9803  94.4330 0007898  66.9318 293.2680 13.77719550 49965
QIANFAN-27              
1 61560U 24185J   25210.87223669  .00000346  00000+0  13594-3 0  9998
2 61560  88.9792  92.8916 0009498  29.1296 331.0426 14.27120225 50782
QIANFAN-28              
1 61561U 24185K   25210.84335214  .00000649  00000+0  25748-3 0  9996
2 61561  88.9811  92.8880 0008569  31.6896 328.4812 14.27677629 50781
QIANFAN-29              
1 61562U 24185L   25210.97892256  .00000157  00000+0  22382-3 0  9990
2 61562  88.9799  95.3530 0012186  82.9557 277.2980 13.50954338 49460
QIANFAN-30              
1 61563U 24185M   25210.85091764  .00000150  00000+0  21665-3 0  9999
2 61563  88.9804  94.8422 0009667  71.1827 289.0371 13.49926240 49736
QIANFAN-31              
1 61564U 24185N   25210.87986964  .00000136  00000+0  17158-3 0  9993
2 61564  88.9786  94.8565 0009336  69.4835 290.7321 13.57904106 49725
QIANFAN-32              
1 61565U 24185P   25210.82076443  .00000151  00000+0  21619-3 0  9995
2 61565  88.9847  94.9382 0011465  92.0042 268.2422 13.50682762 49692
